IRIDIUM 144             
1 43249U 18030A   23360.93757766  .00000478  00000+0  16376-3 0  9992
2 43249  86.3966 307.9060 0002207  84.5432 275.6015 14.34213931300677
IRIDIUM 149             
1 43250U 18030B   23360.94392691  .00000208  00000+0  67098-4 0  9996
2 43250  86.3965 307.8800 0002138  78.3059 281.8377 14.34217518300695
IRIDIUM 157             
1 43251U 18030C   23360.40480368  .00000434  00000+0  14784-3 0  9991
2 43251  86.3965 308.1386 0002256  93.0584 267.0870 14.34218602300595
IRIDIUM 140             
1 43252U 18030D   23360.84244418  .00000494  00000+0  16936-3 0  9991
2 43252  86.3965 307.9709 0002504  76.9716 283.1760 14.34220254300712
IRIDIUM 145             
1 43253U 18030E   23360.89952710  .00000460  00000+0  15727-3 0  9998
2 43253  86.3966 307.9208 0002093  79.0258 281.1173 14.34218305300659
IRIDIUM 146             
1 43254U 18030F   23360.95025578  .00000578  00000+0  19942-3 0  9992
2 43254  86.3966 307.9149 0002062  83.6558 276.4872 14.34214024300673
IRIDIUM 148             
1 43255U 18030G   23360.91855445  .00000203  00000+0  65504-4 0  9994
2 43255  86.3966 307.9574 0001856  90.1832 269.9576 14.34218154300704
IRIDIUM 142             
1 43256U 18030H   23360.95661226  .00001233  00000+0  43312-3 0  9997
2 43256  86.3963 307.8635 0002011  82.9776 277.1649 14.34218040300671
